[{"OBJECT_NAME":"JAY-C","OBJECT_ID":"2025-009BM","EPOCH":"2026-03-09T21:49:25.741344","MEAN_MOTION":15.21616071,"ECCENTRICITY":0.00037153,"INCLINATION":97.4007,"RA_OF_ASC_NODE":149.4579,"ARG_OF_PERICENTER":347.8678,"MEAN_ANOMALY":12.2468,"EPHEMERIS_TYPE":0,"CLASSIFICATION_TYPE":"U","NORAD_CAT_ID":62668,"ELEMENT_SET_NO":999,"REV_AT_EPOCH":12127,"BSTAR":0.00023436914,"MEAN_MOTION_DOT":5.223e-5,"MEAN_MOTION_DDOT":0},{"OBJECT_NAME":"GEESAT-4 10","OBJECT_ID":"2025-170K","EPOCH":"2026-03-09T23:21:58.377312","MEAN_MOTION":15.17890105,"ECCENTRICITY":0.0016786,"INCLINATION":49.9867,"RA_OF_ASC_NODE":229.1245,"ARG_OF_PERICENTER":279.3492,"MEAN_ANOMALY":80.5562,"EPHEMERIS_TYPE":0,"CLASSIFICATION_TYPE":"U","NORAD_CAT_ID":65128,"ELEMENT_SET_NO":999,"REV_AT_EPOCH":3230,"BSTAR":0.00064105503,"MEAN_MOTION_DOT":0.0001293,"MEAN_MOTION_DDOT":0}]
